STARLINK-2573
1 28394C 21038AT  21325.13774080  .00026547  00000-0  17791-2 0  3259
2 28394  53.0527 187.6024 0001432  86.5289 329.6010 15.06362856    12
